NORAD_CAT_ID,OBJECT_NAME,OBJECT_TYPE,EPOCH,MEAN_MOTION,ECCENTRICITY,INCLINATION,RA_OF_ASC_NODE,ARG_OF_PERICENTER,MEAN_ANOMALY,BSTAR,MEAN_MOTION_DOT,MEAN_MOTION_DDOT,TLE_LINE0,TLE_LINE1,TLE_LINE2,SEMIMAJOR_AXIS,PERIOD,APOGEE,PERIGEE,DECAYED
54079.0,STARLINK-5175,PAYLOAD,2024-03-04 15:24:06,15.08838016,0.0001539,53.2185,34.0999,87.4383,272.6785,3.4042e-05,2.54e-06,0.0,0 STARLINK-5175,1 54079U 22136AE  24064.64173904  .00000254  00000-0  34042-4 0  9997,2 54079  53.2185  34.0999 0001539  87.4383 272.6785 15.08838016 76499,6917.886,95.438,540.816,538.687,0.0
54079.0,STARLINK-5175,PAYLOAD,2024-03-05 07:17:57,15.08838389,0.0001573,53.2202,31.124,93.1591,266.9581,-4.6865e-07,-2.95e-06,0.0,0 STARLINK-5175,1 54079U 22136AE  24065.30414092 -.00000295  00000-0 -46865-6 0  9992,2 54079  53.2202  31.1240 0001573  93.1591 266.9581 15.08838389 76111,6917.885,95.438,540.838,538.662,0.0
54079.0,STARLINK-5175,PAYLOAD,2024-03-06 03:57:58,15.08837658,0.0001657,53.2198,27.2587,108.1679,251.9493,0.00014339,1.995e-05,0.0,0 STARLINK-5175,1 54079U 22136AE  24066.16525665  .00001995  00000-0  14339-3 0  9990,2 54079  53.2198  27.2587 0001657 108.1679 251.9493 15.08837658 76723,6917.888,95.438,540.899,538.606,0.0
54079.0,STARLINK-5175,PAYLOAD,2024-03-06 07:08:44,15.08852809,0.0001527,53.2198,26.6644,101.4722,258.6441,-3.7183e-05,-8.8e-06,0.0,0 STARLINK-5175,1 54079U 22136AE  24066.29773297 -.00000880  00000-0 -37183-4 0  9997,2 54079  53.2198  26.6644 0001527 101.4722 258.6441 15.08852809 76745,6917.841,95.437,540.763,538.65,0.0
54079.0,STARLINK-5175,PAYLOAD,2024-03-07 03:48:45,15.08834135,0.0001253,53.2192,22.7996,98.5374,261.576,0.00010536,1.389e-05,0.0,0 STARLINK-5175,1 54079U 22136AE  24067.15886245  .00001389  00000-0  10536-3 0  9996,2 54079  53.2192  22.7996 0001253  98.5374 261.5760 15.08834135 76874,6917.898,95.438,540.63,538.897,0.0
54079.0,STARLINK-5175,PAYLOAD,2024-03-07 06:59:31,15.0883971,0.0001322,53.2194,22.2055,98.6812,261.433,5.2201e-05,5.43e-06,0.0,0 STARLINK-5175,1 54079U 22136AE  24067.29134148  .00000543  00000-0  52201-4 0  9996,2 54079  53.2194  22.2055 0001322  98.6812 261.4330 15.08839710 76418,6917.881,95.438,540.661,538.832,0.0
54079.0,STARLINK-5175,PAYLOAD,2024-03-08 13:11:51,15.08844701,0.0001405,53.2192,16.558,86.057,274.0583,6.5926e-06,-1.83e-06,0.0,0 STARLINK-5175,1 54079U 22136AE  24068.54990285 -.00000183  00000-0  65926-5 0  9997,2 54079  53.2192  16.5580 0001405  86.0570 274.0583 15.08844701 76606,6917.866,95.437,540.703,538.759,0.0
54079.0,STARLINK-5175,PAYLOAD,2024-03-09 05:05:41,15.08859578,0.0001342,53.2189,13.5831,95.0097,265.1049,0.00023608,3.473e-05,0.0,0 STARLINK-5175,1 54079U 22136AE  24069.21228843  .00003473  00000-0  23608-3 0  9999,2 54079  53.2189  13.5831 0001342  95.0097 265.1049 15.08859578 77182,6917.821,95.436,540.614,538.757,0.0
54079.0,STARLINK-5175,PAYLOAD,2024-03-09 13:02:38,15.08847907,0.0001335,53.2194,12.0947,81.4944,278.62,0.00015358,2.158e-05,0.0,0 STARLINK-5175,1 54079U 22136AE  24069.54349571  .00002158  00000-0  15358-3 0  9999,2 54079  53.2194  12.0947 0001335  81.4944 278.6200 15.08847907 77239,6917.856,95.437,540.645,538.798,0.0
54079.0,STARLINK-5175,PAYLOAD,2024-03-09 20:59:35,15.08830766,0.0001382,53.2188,10.611,86.2849,273.8301,-3.2528e-05,-8.05e-06,0.0,0 STARLINK-5175,1 54079U 22136AE  24069.87471371 -.00000805  00000-0 -32528-4 0  9997,2 54079  53.2188  10.6110 0001382  86.2849 273.8301 15.08830766 77286,6917.909,95.438,540.73,538.818,0.0
54079.0,STARLINK-5175,PAYLOAD,2024-03-10 04:56:30,15.08838943,0.0001587,53.2199,9.1243,93.3596,266.7578,4.6489e-05,4.52e-06,0.0,0 STARLINK-5175,1 54079U 22136AE  24070.20590765  .00000452  00000-0  46489-4 0  9992,2 54079  53.2199   9.1243 0001587  93.3596 266.7578 15.08838943 77331,6917.884,95.438,540.846,538.651,0.0
54079.0,STARLINK-5175,PAYLOAD,2024-03-10 12:53:26,15.08834642,0.0001545,53.2201,7.6358,87.3497,272.7672,-2.2618e-05,-6.48e-06,0.0,0 STARLINK-5175,1 54079U 22136AE  24070.53711210 -.00000648  00000-0 -22618-4 0  9995,2 54079  53.2201   7.6358 0001545  87.3497 272.7672 15.08834642 76908,6917.897,95.438,540.831,538.693,0.0
54079.0,STARLINK-5175,PAYLOAD,2024-03-11 03:11:54,15.08849437,0.0001474,53.2189,4.9603,89.2471,270.869,-0.0001026,-1.921e-05,0.0,0 STARLINK-5175,1 54079U 22136AE  24071.13326663 -.00001921  00000-0 -10260-3 0  9990,2 54079  53.2189   4.9603 0001474  89.2471 270.8690 15.08849437 77470,6917.852,95.437,540.736,538.697,0.0
54079.0,STARLINK-5175,PAYLOAD,2024-03-11 12:44:12,15.08851261,0.0001469,53.2192,3.1743,83.9863,276.1297,-0.00017281,-3.038e-05,0.0,0 STARLINK-5175,1 54079U 22136AE  24071.53070525 -.00003038  00000-0 -17281-3 0  9998,2 54079  53.2192   3.1743 0001469  83.9863 276.1297 15.08851261 77054,6917.846,95.437,540.727,538.695,0.0
54079.0,STARLINK-5175,PAYLOAD,2024-03-11 19:05:46,15.08828889,0.0001494,53.2189,1.986,84.5086,275.6077,9.661e-05,1.249e-05,0.0,0 STARLINK-5175,1 54079U 22136AE  24071.79567356  .00001249  00000-0  96610-4 0  9993,2 54079  53.2189   1.9860 0001494  84.5086 275.6077 15.08828889 77575,6917.914,95.438,540.813,538.746,0.0
54079.0,STARLINK-5175,PAYLOAD,2024-03-12 04:38:04,15.0884197,0.0001548,53.2193,0.2027,87.9556,272.1613,9.3891e-05,1.207e-05,0.0,0 STARLINK-5175,1 54079U 22136AE  24072.19310713  .00001207  00000-0  93891-4 0  9993,2 54079  53.2193   0.2027 0001548  87.9556 272.1613 15.08841970 77637,6917.874,95.437,540.81,538.668,0.0
54079.0,STARLINK-5175,PAYLOAD,2024-03-12 12:35:00,15.08838595,0.0001421,53.2187,358.7155,90.8512,269.2643,7.249e-05,8.66e-06,0.0,0 STARLINK-5175,1 54079U 22136AE  24072.52430953  .00000866  00000-0  72490-4 0  9991,2 54079  53.2187 358.7155 0001421  90.8512 269.2643 15.08838595 77200,6917.885,95.438,540.733,538.767,0.0
54079.0,STARLINK-5175,PAYLOAD,2024-03-13 12:25:47,15.08841546,0.0001402,53.2182,354.2505,115.6916,244.4221,1.377e-05,-6.9e-07,0.0,0 STARLINK-5175,1 54079U 22136AE  24073.51790833 -.00000069  00000-0  13770-4 0  9999,2 54079  53.2182 354.2505 0001402 115.6916 244.4221 15.08841546 77834,6917.876,95.437,540.711,538.771,0.0
54079.0,STARLINK-5175,PAYLOAD,2024-03-13 21:58:06,15.08834149,0.0001266,53.2171,352.4658,121.268,238.8436,0.00015319,2.151e-05,0.0,0 STARLINK-5175,1 54079U 22136AE  24073.91534951  .00002151  00000-0  15319-3 0  9993,2 54079  53.2171 352.4658 0001266 121.2680 238.8436 15.08834149 77410,6917.898,95.438,540.639,538.887,0.0
54079.0,STARLINK-5175,PAYLOAD,2024-03-14 01:08:52,15.08846963,0.0001416,53.2192,351.875,101.5164,258.5987,4.7059e-05,4.61e-06,0.0,0 STARLINK-5175,1 54079U 22136AE  24074.04782589  .00000461  00000-0  47059-4 0  9999,2 54079  53.2192 351.8750 0001416 101.5164 258.5987 15.08846963 77433,6917.859,95.437,540.704,538.745,0.0
54079.0,STARLINK-5175,PAYLOAD,2024-03-14 21:48:53,15.08838958,0.0001056,53.2167,348.0044,105.1123,254.9986,1.0202e-05,-1.25e-06,0.0,0 STARLINK-5175,1 54079U 22136AE  24074.90895069 -.00000125  00000-0  10202-4 0  9990,2 54079  53.2167 348.0044 0001056 105.1123 254.9986 15.08838958 77562,6917.884,95.438,540.479,539.018,0.0
54079.0,STARLINK-5175,PAYLOAD,2024-03-15 04:10:25,15.08840956,0.0001423,53.2184,346.817,94.9579,265.1576,1.7468e-05,-1e-07,0.0,0 STARLINK-5175,1 54079U 22136AE  24075.17390976 -.00000010  00000-0  17468-4 0  9991,2 54079  53.2184 346.8170 0001423  94.9579 265.1576 15.08840956 78083,6917.877,95.437,540.727,538.758,0.0
54079.0,STARLINK-5175,PAYLOAD,2024-03-15 23:15:03,15.08836838,0.000149,53.2187,343.2489,113.5562,246.5586,-1.6249e-05,-5.47e-06,0.0,0 STARLINK-5175,1 54079U 22136AE  24075.96879468 -.00000547  00000-0 -16249-4 0  9998,2 54079  53.2187 343.2489 0001490 113.5562 246.5586 15.08836838 78206,6917.89,95.438,540.786,538.724,0.0
54079.0,STARLINK-5175,PAYLOAD,2024-03-16 21:30:28,15.0883718,0.0001304,53.2185,339.0859,96.7666,263.3475,5.2106e-06,-2.05e-06,0.0,0 STARLINK-5175,1 54079U 22136AE  24076.89615768 -.00000205  00000-0  52106-5 0  9995,2 54079  53.2185 339.0859 0001304  96.7666 263.3475 15.08837180 77865,6917.889,95.438,540.656,538.852,0.0
54079.0,STARLINK-5175,PAYLOAD,2024-03-17 02:16:37,15.08838314,0.000136,53.2185,338.194,91.6944,268.4204,6.6519e-05,7.71e-06,0.0,0 STARLINK-5175,1 54079U 22136AE  24077.09487574  .00000771  00000-0  66519-4 0  9999,2 54079  53.2185 338.1940 0001360  91.6944 268.4204 15.08838314 78374,6917.886,95.438,540.691,538.81,0.0
54079.0,STARLINK-5175,PAYLOAD,2024-03-17 21:21:15,15.08837049,0.0001332,53.2186,334.6309,83.4531,276.6612,8.8019e-05,1.113e-05,0.0,0 STARLINK-5175,1 54079U 22136AE  24077.88975817  .00001113  00000-0  88019-4 0  9998,2 54079  53.2186 334.6309 0001332  83.4531 276.6612 15.08837049 78014,6917.889,95.438,540.676,538.833,0.0
54079.0,STARLINK-5175,PAYLOAD,2024-03-18 02:07:24,15.08844655,0.0001447,53.2191,333.7376,83.4248,276.6909,0.00013437,1.851e-05,0.0,0 STARLINK-5175,1 54079U 22136AE  24078.08847233  .00001851  00000-0  13437-3 0  9991,2 54079  53.2191 333.7376 0001447  83.4248 276.6909 15.08844655 78049,6917.866,95.437,540.732,538.73,0.0
54079.0,STARLINK-5175,PAYLOAD,2024-03-18 21:11:59,15.08864744,0.0001378,53.2183,330.1688,79.1004,281.0143,0.00023121,3.396e-05,0.0,0 STARLINK-5175,1 54079U 22136AE  24078.88333042  .00003396  00000-0  23121-3 0  9994,2 54079  53.2183 330.1688 0001378  79.1004 281.0143 15.08864744 78649,6917.805,95.436,540.623,538.716,0.0
54079.0,STARLINK-5175,PAYLOAD,2024-03-19 00:22:46,15.08861422,0.0001649,53.2186,329.575,64.2802,295.836,0.00021337,3.111e-05,0.0,0 STARLINK-5175,1 54079U 22136AE  24079.01581240  .00003111  00000-0  21337-3 0  9997,2 54079  53.2186 329.5750 0001649  64.2802 295.8360 15.08861422 78189,6917.815,95.436,540.821,538.539,0.0
54079.0,STARLINK-5175,PAYLOAD,2024-03-19 21:02:48,15.08837765,0.0001342,53.2189,325.7068,89.0281,271.0865,-9.7835e-05,-1.845e-05,0.0,0 STARLINK-5175,1 54079U 22136AE  24079.87695576 -.00001845  00000-0 -97835-4 0  9990,2 54079  53.2189 325.7068 0001342  89.0281 271.0865 15.08837765 78794,6917.887,95.438,540.681,538.824,0.0
